{
    "links": {
        "self": "http://www.neowsapp.com/rest/v1/neo/3616351?api_key=iIulBulltgU6a56xZRHN4H3l9WmuAYTsLGpBGhQ2"
    },
    "id": "3616351",
    "neo_reference_id": "3616351",
    "name": "(2012 VL5)",
    "designation": "2012 VL5",
    "nasa_jpl_url": "http://ssd.jpl.nasa.gov/sbdb.cgi?sstr=3616351",
    "absolute_magnitude_h": 28.3,
    "estimated_diameter": {
        "kilometers": {
            "estimated_diameter_min": 0.0058150704,
            "estimated_diameter_max": 0.0130028927
        },
        "meters": {
            "estimated_diameter_min": 5.8150703965,
            "estimated_diameter_max": 13.0028927004
        },
        "miles": {
            "estimated_diameter_min": 0.0036133161,
            "estimated_diameter_max": 0.0080796204
        },
        "feet": {
            "estimated_diameter_min": 19.0783155595,
            "estimated_diameter_max": 42.6604104873
        }
    },
    "is_potentially_hazardous_asteroid": false,
    "close_approach_data": [
        {
            "close_approach_date": "2012-11-02",
            "close_approach_date_full": "2012-Nov-02 20:35",
            "epoch_date_close_approach": 1351888500000,
            "relative_velocity": {
                "kilometers_per_second": "5.85167656",
                "kilometers_per_hour": "21066.0356161408",
                "miles_per_hour": "13089.6152971515"
            },
            "miss_distance": {
                "astronomical": "0.0131425181",
                "lunar": "5.1124395409",
                "kilometers": "1966092.714196447",
                "miles": "1221673.3628550886"
            },
            "orbiting_body": "Earth"
        }
    ],
    "orbital_data": {
        "orbit_id": "5",
        "orbit_determination_date": "2017-04-06 08:48:13",
        "first_observation_date": "2012-11-03",
        "last_observation_date": "2012-11-06",
        "data_arc_in_days": 3,
        "observations_used": 27,
        "orbit_uncertainty": "7",
        "minimum_orbit_intersection": ".0135743",
        "jupiter_tisserand_invariant": "3.920",
        "epoch_osculation": "2459000.5",
        "eccentricity": ".4467251092878801",
        "semi_major_axis": "1.81788740855452",
        "inclination": ".7308764341553078",
        "ascending_node_longitude": "46.23029774394174",
        "orbital_period": "895.2594195889646",
        "perihelion_distance": "1.005791457294941",
        "perihelion_argument": "351.9843260373844",
        "aphelion_distance": "2.629983359814099",
        "perihelion_time": "2458918.378789243791",
        "mean_anomaly": "33.02242369681906",
        "mean_motion": ".402118081220843",
        "equinox": "J2000",
        "orbit_class": {
            "orbit_class_type": "APO",
            "orbit_class_description": "Near-Earth asteroid orbits which cross the Earth’s orbit similar to that of 1862 Apollo",
            "orbit_class_range": "a (semi-major axis) > 1.0 AU; q (perihelion) < 1.017 AU"
        }
    },
    "is_sentry_object": false
}